OBJECT_NAME,OBJECT_ID,EPOCH,MEAN_MOTION,ECCENTRICITY,INCLINATION,RA_OF_ASC_NODE,ARG_OF_PERICENTER,MEAN_ANOMALY,EPHEMERIS_TYPE,CLASSIFICATION_TYPE,NORAD_CAT_ID,ELEMENT_SET_NO,REV_AT_EPOCH,BSTAR,MEAN_MOTION_DOT,MEAN_MOTION_DDOT
KL-BETA B,2021-070B,2023-06-14T11:09:24.982272,13.96427235,.000352,88.9967,339.2507,331.0582,29.0399,0,U,49060,999,9477,.7378E-4,.115E-5,0
CHINASAT 2E (ZX 2E),2021-071A,2023-06-14T00:18:42.563232,1.00270150,.0000566,0.0022,106.9528,53.9535,203.8798,0,U,49062,999,702,0,-.289E-5,0
BRO-4,2021-073A,2023-06-14T11:57:59.618880,15.17045858,.0026258,97.4872,238.1733,115.2577,245.1382,0,U,49066,999,10062,.51758E-3,.10269E-3,0
RADCUBE,2021-073B,2023-06-13T22:54:49.300128,15.20473104,.0022511,97.4839,237.8910,124.4994,235.8372,0,U,49067,999,10054,.91774E-3,.20144E-3,0
SUNSTORM,2021-073C,2023-06-14T03:51:29.498112,15.19632886,.0022885,97.4864,237.8685,124.8133,235.5259,0,U,49068,999,10055,.80358E-3,.172E-3,0
LEDSAT,2021-073D,2023-06-14T03:31:24.111840,15.14102516,.0025358,97.4827,236.0721,129.5367,230.8111,0,U,49069,999,10044,.49035E-3,.8936E-4,0
PLEIADES NEO 4,2021-073E,2023-06-14T11:11:13.278624,14.81669336,.0001423,97.8939,239.9974,101.6613,258.4760,0,U,49070,999,9867,.11968E-3,.89E-5,0
TIANHUI 2-02A,2021-074A,2023-06-14T11:52:31.773216,15.16761159,.0001618,97.4601,168.6113,105.1570,254.9842,0,U,49071,999,10074,.12647E-3,.2415E-4,0
TIANHUI 2-02B,2021-074B,2023-06-14T10:17:31.860672,15.16760724,.0001819,97.4601,168.5418,88.1711,271.9730,0,U,49072,999,10072,.12575E-3,.2401E-4,0
ONEWEB-0285,2021-075A,2023-06-13T21:01:27.778944,13.12442401,.0002026,87.9006,209.1053,93.4918,266.6442,0,U,49075,999,9101,.10904E-2,.405E-5,0
ONEWEB-0286,2021-075B,2023-06-14T01:45:02.057472,13.12442944,.0002482,87.9010,209.0718,103.3574,256.7831,0,U,49076,999,9137,-.11301E-2,-.394E-5,0
ONEWEB-0287,2021-075C,2023-06-14T05:18:03.594816,13.17648462,.0001871,87.9176,224.2146,107.4650,252.6686,0,U,49077,999,8987,.20905E-3,.94E-6,0
ONEWEB-0288,2021-075D,2023-06-13T12:35:12.730560,13.12439795,.0002064,87.9012,209.1834,99.0558,261.0804,0,U,49078,999,9193,-.55075E-3,-.185E-5,0
ONEWEB-0289,2021-075E,2023-06-13T20:49:56.032896,13.17644290,.0002415,87.9176,224.2565,92.8205,267.3203,0,U,49079,999,9040,.29757E-2,.1168E-4,0
ONEWEB-0290,2021-075F,2023-06-13T22:13:33.049344,13.17648835,.0001732,87.9177,224.2668,97.1789,262.9540,0,U,49080,999,8983,-.93847E-4,-.24E-6,0
ONEWEB-0291,2021-075G,2023-06-13T21:51:02.099808,13.17647236,.0002065,87.9177,224.2562,103.6830,256.4531,0,U,49081,999,8983,-.98784E-4,-.25E-6,0
ONEWEB-0293,2021-075H,2023-06-14T02:05:06.479520,13.17650543,.0001893,87.9177,224.2099,101.6636,258.4708,0,U,49082,999,8987,-.22744E-4,.4E-7,0
ONEWEB-0294,2021-075J,2023-06-13T20:01:58.776384,13.12441237,.0001667,87.9011,209.1218,90.2587,269.8733,0,U,49083,999,9037,-.98822E-3,-.343E-5,0
ONEWEB-0295,2021-075K,2023-06-14T03:57:39.465504,13.17650093,.0002047,87.9181,224.1599,114.7863,245.3482,0,U,49084,999,8982,.10736E-3,.55E-6,0
ONEWEB-0296,2021-075L,2023-06-14T02:58:13.365984,13.12440959,.0001902,87.9012,209.0623,123.0458,237.0853,0,U,49085,999,9140,.79273E-3,.298E-5,0
ONEWEB-0297,2021-075M,2023-06-14T01:51:07.148448,13.12444946,.0002493,87.9004,209.0593,94.3244,265.8170,0,U,49086,999,9200,-.87004E-3,-.3E-5,0
ONEWEB-0298,2021-075N,2023-06-14T02:11:32.709120,13.17648192,.0002443,87.9181,224.1969,101.6286,258.5120,0,U,49087,999,8987,-.79985E-4,-.18E-6,0
ONEWEB-0299,2021-075P,2023-06-14T02:14:43.773216,13.17647500,.0002228,87.9175,224.2353,105.7559,254.3818,0,U,49088,999,8983,.10252E-3,.53E-6,0
ONEWEB-0300,2021-075Q,2023-06-13T20:09:36.559008,13.12442541,.0002404,87.9014,209.1177,94.8630,265.2773,0,U,49089,999,9100,-.13549E-2,-.475E-5,0
ONEWEB-0301,2021-075R,2023-06-13T19:48:15.025824,13.12439894,.0002314,87.9011,209.1234,87.0710,273.0683,0,U,49090,999,9036,-.63609E-4,-.1E-6,0
ONEWEB-0302,2021-075S,2023-06-13T21:21:17.433504,13.12441895,.0001966,87.9006,209.1095,100.8931,259.2419,0,U,49091,999,9135,.92498E-3,.345E-5,0
ONEWEB-0304,2021-075T,2023-06-14T05:21:16.764480,13.17648677,.0002179,87.9182,224.1780,103.7614,256.3760,0,U,49092,999,8983,.15413E-3,.73E-6,0
ONEWEB-0305,2021-075U,2023-06-13T14:30:23.020704,13.17647030,.0002309,87.9180,224.3342,111.4507,248.6871,0,U,49093,999,8880,-.65939E-3,-.243E-5,0
ONEWEB-0308,2021-075V,2023-06-13T21:13:38.768736,13.12452273,.000224,87.9011,209.1108,96.0208,264.1176,0,U,49094,999,9136,-.24989E-2,-.886E-5,0
ONEWEB-0309,2021-075W,2023-06-13T21:57:27.433440,13.17650369,.0001667,87.9177,224.2786,103.6342,256.4975,0,U,49095,999,8980,.49121E-4,.32E-6,0
ONEWEB-0310,2021-075X,2023-06-13T19:40:36.787008,13.12444362,.000179,87.9003,209.1089,93.6201,266.5132,0,U,49096,999,9098,.54589E-3,.209E-5,0
ONEWEB-0311,2021-075Y,2023-06-13T14:49:42.060288,13.17650407,.0002527,87.9179,224.3400,106.1585,253.9825,0,U,49097,999,8882,.24408E-3,.108E-5,0
ONEWEB-0312,2021-075Z,2023-06-13T20:33:49.483008,13.17647978,.0001881,87.9178,224.2597,114.5874,245.5453,0,U,49098,999,8883,.53793E-5,.15E-6,0
ONEWEB-0313,2021-075AA,2023-06-14T03:22:17.384736,13.17648653,.000205,87.9174,224.2247,107.9986,252.1369,0,U,49099,999,8986,-.26685E-4,.3E-7,0
ONEWEB-0314,2021-075AB,2023-06-13T14:27:11.116800,13.17650194,.0002022,87.9178,224.3380,114.4306,245.7036,0,U,49100,999,8876,.16006E-3,.75E-6,0
ONEWEB-0315,2021-075AC,2023-06-13T20:49:13.270944,13.12442325,.0002434,87.9010,209.1081,92.3103,267.8304,0,U,49101,999,9197,-.75226E-3,-.258E-5,0
ONEWEB-0316,2021-075AD,2023-06-14T11:12:47.467584,13.18687527,.0002366,87.9251,193.8966,98.2799,261.8601,0,U,49102,999,9341,.48549E-4,.32E-6,0
ONEWEB-0317,2021-075AE,2023-06-13T20:43:09.793056,13.12444357,.0001825,87.9011,209.1145,95.0216,265.1121,0,U,49103,999,9099,.86647E-4,.44E-6,0
ONEWEB-0318,2021-075AF,2023-06-13T18:46:24.212352,13.18685137,.0002439,87.9254,194.0205,98.4994,261.6415,0,U,49104,999,9227,.18914E-3,.87E-6,0
ONEWEB-0319,2021-075AG,2023-06-13T22:10:18.162048,13.17650622,.0002691,87.9177,224.2417,111.1067,249.0353,0,U,49105,999,8983,-.15616E-4,.7E-7,0
ONEWEB-0323,2021-075AH,2023-06-13T20:29:25.248480,13.12442535,.0002243,87.9009,209.1069,101.1777,258.9604,0,U,49106,999,9035,-.79324E-3,-.273E-5,0
ONEWEB-0329,2021-075AJ,2023-06-13T20:27:25.222464,13.17648827,.0002118,87.9177,224.2570,106.1720,253.9645,0,U,49107,999,8980,.23978E-4,.22E-6,0
ONEWEB-0330,2021-075AK,2023-06-13T20:30:35.927136,13.17651281,.0001923,87.9177,224.2746,105.1861,254.9483,0,U,49108,999,8984,.39595E-4,.28E-6,0
RSW-01,2021-076A,2023-06-14T11:33:32.118336,13.42749113,.0013561,86.4110,190.4381,257.7883,102.1742,0,U,49112,999,8843,.10749E-3,.76E-6,0
PAYLOAD B,2021-076B,2023-06-14T11:52:43.318848,14.08785172,.002116,86.4055,162.8339,49.8982,310.4050,0,U,49113,999,9270,.11419E-3,.216E-5,0
RSW-02,2021-076C,2023-06-14T11:42:47.013696,13.42748881,.0017101,86.4109,190.4363,254.2912,105.6346,0,U,49114,999,8843,.10343E-3,.74E-6,0
TJS-7,2021-077A,2023-06-13T19:54:41.809248,1.00270739,.0004733,0.2070,99.1873,272.6392,89.2620,0,U,49115,999,679,0,-.122E-5,0
GAOFEN 5-02,2021-079A,2023-06-14T11:11:36.951360,14.57669716,.0002465,98.2150,241.1047,96.2147,263.9333,0,U,49122,999,9401,.83852E-4,.337E-5,0
CHINASAT 9B,2021-080A,2023-06-14T00:18:42.563232,1.00272323,.0001806,0.0518,107.9531,4.0363,256.1505,0,U,49125,999,661,0,-.311E-5,0
STARLINK-3096,2021-082B,2023-06-13T23:05:23.712864,14.98329290,.0003539,69.9994,255.1121,269.4523,90.6231,0,U,49131,999,9721,.13881E-4,.73E-6,0
STARLINK-3090,2021-082C,2023-06-14T07:54:47.827008,14.98333293,.0003191,69.9994,294.1917,270.1700,89.9093,0,U,49132,999,9628,.52753E-4,.537E-5,0
STARLINK-3077,2021-082D,2023-06-14T01:24:15.288192,14.98332471,.0003166,69.9995,294.8806,265.6672,94.4126,0,U,49133,999,9624,-.18918E-4,-.319E-5,0
STARLINK-3078,2021-082E,2023-06-14T07:42:46.979712,14.98331824,.0003122,70.0000,294.2205,272.4391,87.6410,0,U,49134,999,9748,.4424E-4,.435E-5,0
STARLINK-3073,2021-082F,2023-06-14T05:23:55.039776,14.98331585,.0003391,70.0001,254.4427,269.0891,90.9880,0,U,49135,999,9726,.23704E-4,.19E-5,0
STARLINK-3084,2021-082G,2023-06-14T00:29:50.073216,14.98353466,.0003581,69.9996,274.9689,270.9304,89.1445,0,U,49136,999,9674,-.42233E-3,-.5132E-4,0
STARLINK-3055,2021-082H,2023-06-14T06:48:22.336704,14.98331387,.0003183,70.0000,274.3105,268.4571,91.6223,0,U,49137,999,9677,.10009E-4,.26E-6,0
STARLINK-3058,2021-082J,2023-06-13T10:47:01.934880,14.98328852,.0003213,70.0000,296.4224,269.0721,91.0070,0,U,49138,999,9615,.23061E-4,.182E-5,0
STARLINK-3057,2021-082K,2023-06-14T06:48:02.363616,14.98332275,.0003096,69.9997,254.3005,269.6460,90.4344,0,U,49139,999,9726,.72966E-8,-.93E-6,0
STARLINK-3118,2021-082L,2023-06-13T16:10:48.802944,14.98331766,.0003295,69.9993,255.8440,267.1043,92.9739,0,U,49140,999,9717,.1545E-4,.91E-6,0
STARLINK-3093,2021-082M,2023-06-13T18:41:41.478720,14.98332920,.0003219,70.0000,295.5958,269.1339,90.9452,0,U,49141,999,9740,.73146E-4,.78E-5,0
STARLINK-3042,2021-082N,2023-06-13T16:04:50.496960,14.98316929,.0003254,69.9996,255.8602,275.2354,84.8433,0,U,49142,999,9717,-.12795E-3,-.1619E-4,0
STARLINK-3109,2021-082P,2023-06-14T00:17:49.757280,14.98330366,.0003038,69.9996,274.9982,264.5665,95.5148,0,U,49143,999,9672,-.1794E-4,-.307E-5,0
STARLINK-3100,2021-082Q,2023-06-14T02:30:20.895264,14.98331705,.0003241,70.0000,294.7533,278.7601,81.3191,0,U,49144,999,9625,.17749E-4,.119E-5,0
STARLINK-3119,2021-082R,2023-06-13T06:03:57.951648,14.98330494,.0003164,69.9996,256.8961,269.6652,90.4145,0,U,49145,999,9710,.14949E-4,.85E-6,0
STARLINK-3116,2021-082S,2023-06-13T17:47:17.045664,14.98330652,.0003299,70.0002,275.6859,265.4917,94.5865,0,U,49146,999,9784,-.22989E-4,-.367E-5,0
STARLINK-3071,2021-082T,2023-06-13T06:21:59.574240,14.98330488,.0003352,69.9999,256.8835,270.5159,89.5616,0,U,49147,999,9711,.20156E-4,.147E-5,0
STARLINK-3048,2021-082U,2023-06-13T17:35:15.848448,14.98333816,.0003299,69.9993,275.6842,271.9162,88.1619,0,U,49148,999,9668,-.20722E-5,-.118E-5,0
STARLINK-3053,2021-082V,2023-06-13T18:23:40.074720,14.98329990,.0003194,70.0002,295.6103,269.5400,90.5393,0,U,49149,999,9739,.21244E-4,.16E-5,0
